{"type": "FeatureCollection", "features": [{"type": "Feature", "properties": {"norad_id": 24946, "name": "IRIDIUM 33", "group": "iridium-33-debris", "lat": 30.548270092084977, "lon": 71.24828489337928, "alt_km": 778.232529883202, "timestamp": "2025-12-10T14:53:37.472935+00:00", "meta": {"OBJECT_NAME": "IRIDIUM 33", "OBJECT_ID": "1997-051C", "EPOCH": "2025-12-10T06:23:01.953312", "MEAN_MOTION": 14.35034693, "ECCENTRICITY": 0.00067534, "INCLINATION": 86.3869, "RA_OF_ASC_NODE": 69.26, "ARG_OF_PERICENTER": 209.402, "MEAN_ANOMALY": 150.6797, "EPHEMERIS_TYPE": 0, "CLASSIFICATION_TYPE": "U", "NORAD_CAT_ID": 24946, "ELEMENT_SET_NO": 999, "REV_AT_EPOCH": 47799, "BSTAR": 0.00019699715, "MEAN_MOTION_DOT": 5.81e-06, "MEAN_MOTION_DDOT": 0}, "tle": {"line1": "1 24946U 97051C   25344.26599483  .00000581  00000+0  19700-3 0  9994", "line2": "2 24946  86.3869  69.2600 0006753 209.4020 150.6797 14.35034693477997"}}, "geometry": {"type": "Point", "coordinates": [71.24828489337928, 30.548270092084977]}}, {"type": "Feature", "properties": {"norad_id": 33773, "name": "IRIDIUM 33 DEB", "group": "iridium-33-debris", "lat": -74.40872376376876, "lon": 48.453754258612754, "alt_km": 761.107898017337, "timestamp": "2025-12-10T14:53:37.473027+00:00", "meta": {"OBJECT_NAME": "IRIDIUM 33 DEB", "OBJECT_ID": "1997-051L", "EPOCH": "2025-12-10T06:55:15.093696", "MEAN_MOTION": 14.43248623, "ECCENTRICITY": 0.00122506, "INCLINATION": 86.4014, "RA_OF_ASC_NODE": 61.6283, "ARG_OF_PERICENTER": 153.6109, "MEAN_ANOMALY": 206.5718, "EPHEMERIS_TYPE": 0, "CLASSIFICATION_TYPE": "U", "NORAD_CAT_ID": 33773, "ELEMENT_SET_NO": 999, "REV_AT_EPOCH": 88312, "BSTAR": 0.00049327566, "MEAN_MOTION_DOT": 1.68e-05, "MEAN_MOTION_DDOT": 0}, "tle": {"line1": "1 33773U 97051L   25344.28836914  .00001680  00000+0  49328-3 0  9997", "line2": "2 33773  86.4014  61.6283 0012250 153.6109 206.5718 14.43248623883127"}}, "geometry": {"type": "Point", "coordinates": [48.453754258612754, -74.40872376376876]}}, {"type": "Feature", "properties": {"norad_id": 33775, "name": "IRIDIUM 33 DEB", "group": "iridium-33-debris", "lat": 21.980013790403113, "lon": 51.929053812601786, "alt_km": 761.0304798762227, "timestamp": "2025-12-10T14:53:37.473042+00:00", "meta": {"OBJECT_NAME": "IRIDIUM 33 DEB", "OBJECT_ID": "1997-051N", "EPOCH": "2025-12-10T05:02:38.383008", "MEAN_MOTION": 14.41460107, "ECCENTRICITY": 0.0014015, "INCLINATION": 86.3639, "RA_OF_ASC_NODE": 50.6335, "ARG_OF_PERICENTER": 162.3893, "MEAN_ANOMALY": 251.5008, "EPHEMERIS_TYPE": 0, "CLASSIFICATION_TYPE": "U", "NORAD_CAT_ID": 33775, "ELEMENT_SET_NO": 999, "REV_AT_EPOCH": 88104, "BSTAR": 0.0005230083, "MEAN_MOTION_DOT": 1.717e-05, "MEAN_MOTION_DDOT": 0}, "tle": {"line1": "1 33775U 97051N   25344.21016647  .00001717  00000+0  52301-3 0  9991", "line2": "2 33775  86.3639  50.6335 0014015 162.3893 251.5008 14.41460107881047"}}, "geometry": {"type": "Point", "coordinates": [51.929053812601786, 21.980013790403113]}}, {"type": "Feature", "properties": {"norad_id": 33776, "name": "IRIDIUM 33 DEB", "group": "iridium-33-debris", "lat": -82.39366114225137, "lon": 53.570093779955336, "alt_km": 769.9352196421814, "timestamp": "2025-12-10T14:53:37.473055+00:00", "meta": {"OBJECT_NAME": "IRIDIUM 33 DEB", "OBJECT_ID": "1997-051P", "EPOCH": "2025-12-10T07:10:53.796000", "MEAN_MOTION": 14.38228746, "ECCENTRICITY": 0.00140513, "INCLINATION": 86.4037, "RA_OF_ASC_NODE": 81.8007, "ARG_OF_PERICENTER": 198.4306, "MEAN_ANOMALY": 215.4156, "EPHEMERIS_TYPE": 0, "CLASSIFICATION_TYPE": "U", "NORAD_CAT_ID": 33776, "ELEMENT_SET_NO": 999, "REV_AT_EPOCH": 88047, "BSTAR": 0.00052587235, "MEAN_MOTION_DOT": 1.618e-05, "MEAN_MOTION_DDOT": 0}, "tle": {"line1": "1 33776U 97051P   25344.29923375  .00001618  00000+0  52587-3 0  9991", "line2": "2 33776  86.4037  81.8007 0014051 198.4306 215.4156 14.38228746880478"}}, "geometry": {"type": "Point", "coordinates": [53.570093779955336, -82.39366114225137]}}, {"type": "Feature", "properties": {"norad_id": 33777, "name": "IRIDIUM 33 DEB", "group": "iridium-33-debris", "lat": -67.80382843295969, "lon": 27.19514879483509, "alt_km": 711.7725368423189, "timestamp": "2025-12-10T14:53:37.473067+00:00", "meta": {"OBJECT_NAME": "IRIDIUM 33 DEB", "OBJECT_ID": "1997-051Q", "EPOCH": "2025-12-10T05:18:24.096672", "MEAN_MOTION": 14.55584185, "ECCENTRICITY": 0.00050752, "INCLINATION": 86.3784, "RA_OF_ASC_NODE": 36.2988, "ARG_OF_PERICENTER": 260.7341, "MEAN_ANOMALY": 99.3293, "EPHEMERIS_TYPE": 0, "CLASSIFICATION_TYPE": "U", "NORAD_CAT_ID": 33777, "ELEMENT_SET_NO": 999, "REV_AT_EPOCH": 88497, "BSTAR": 0.0013185799, "MEAN_MOTION_DOT": 5.769e-05, "MEAN_MOTION_DDOT": 0}, "tle": {"line1": "1 33777U 97051Q   25344.22111223  .00005769  00000+0  13186-2 0  9998", "line2": "2 33777  86.3784  36.2988 0005075 260.7341  99.3293 14.55584185884978"}}, "geometry": {"type": "Point", "coordinates": [27.19514879483509, -67.80382843295969]}}, {"type": "Feature", "properties": {"norad_id": 33850, "name": "IRIDIUM 33 DEB", "group": "iridium-33-debris", "lat": -2.1645660447282635, "lon": 30.95249633540767, "alt_km": 763.1579784515552, "timestamp": "2025-12-10T14:53:37.473078+00:00", "meta": {"OBJECT_NAME": "IRIDIUM 33 DEB", "OBJECT_ID": "1997-051T", "EPOCH": "2025-12-10T03:29:36.109248", "MEAN_MOTION": 14.42137967, "ECCENTRICITY": 0.00119531, "INCLINATION": 86.3419, "RA_OF_ASC_NODE": 31.2952, "ARG_OF_PERICENTER": 168.989, "MEAN_ANOMALY": 244.4174, "EPHEMERIS_TYPE": 0, "CLASSIFICATION_TYPE": "U", "NORAD_CAT_ID": 33850, "ELEMENT_SET_NO": 999, "REV_AT_EPOCH": 88115, "BSTAR": 0.00047039968, "MEAN_MOTION_DOT": 1.567e-05, "MEAN_MOTION_DDOT": 0}, "tle": {"line1": "1 33850U 97051T   25344.14555682  .00001567  00000+0  47040-3 0  9991", "line2": "2 33850  86.3419  31.2952 0011953 168.9890 244.4174 14.42137967881157"}}, "geometry": {"type": "Point", "coordinates": [30.95249633540767, -2.1645660447282635]}}, {"type": "Feature", "properties": {"norad_id": 33853, "name": "IRIDIUM 33 DEB", "group": "iridium-33-debris", "lat": -8.568845297291702, "lon": -9.863390019325692, "alt_km": 947.672933025744, "timestamp": "2025-12-10T14:53:37.473090+00:00", "meta": {"OBJECT_NAME": "IRIDIUM 33 DEB", "OBJECT_ID": "1997-051W", "EPOCH": "2025-12-09T12:13:24.016800", "MEAN_MOTION": 13.99031995, "ECCENTRICITY": 0.02069783, "INCLINATION": 85.9998, "RA_OF_ASC_NODE": 351.2277, "ARG_OF_PERICENTER": 245.8173, "MEAN_ANOMALY": 269.932, "EPHEMERIS_TYPE": 0, "CLASSIFICATION_TYPE": "U", "NORAD_CAT_ID": 33853, "ELEMENT_SET_NO": 999, "REV_AT_EPOCH": 85300, "BSTAR": 0.0029960339, "MEAN_MOTION_DOT": 5.22e-05, "MEAN_MOTION_DDOT": 0}, "tle": {"line1": "1 33853U 97051W   25343.50930575  .00005220  00000+0  29960-2 0  9991", "line2": "2 33853  85.9998 351.2277 0206978 245.8173 269.9320 13.99031995853007"}}, "geometry": {"type": "Point", "coordinates": [-9.863390019325692, -8.568845297291702]}}, {"type": "Feature", "properties": {"norad_id": 33860, "name": "IRIDIUM 33 DEB", "group": "iridium-33-debris", "lat": 79.41093158969564, "lon": -171.597708362622, "alt_km": 662.7903105825526, "timestamp": "2025-12-10T14:53:37.473100+00:00", "meta": {"OBJECT_NAME": "IRIDIUM 33 DEB", "OBJECT_ID": "1997-051AD", "EPOCH": "2025-12-09T21:13:16.279680", "MEAN_MOTION": 14.67309939, "ECCENTRICITY": 0.00078248, "INCLINATION": 86.3835, "RA_OF_ASC_NODE": 28.5019, "ARG_OF_PERICENTER": 7.8125, "MEAN_ANOMALY": 164.8827, "EPHEMERIS_TYPE": 0, "CLASSIFICATION_TYPE": "U", "NORAD_CAT_ID": 33860, "ELEMENT_SET_NO": 999, "REV_AT_EPOCH": 88680, "BSTAR": 0.0019516375, "MEAN_MOTION_DOT": 0.00011043, "MEAN_MOTION_DDOT": 0}, "tle": {"line1": "1 33860U 97051AD  25343.88421620  .00011043  00000+0  19516-2 0  9992", "line2": "2 33860  86.3835  28.5019 0007824   7.8125 164.8827 14.67309939886801"}}, "geometry": {"type": "Point", "coordinates": [-171.597708362622, 79.41093158969564]}}, {"type": "Feature", "properties": {"norad_id": 33862, "name": "IRIDIUM 33 DEB", "group": "iridium-33-debris", "lat": 60.21477091077064, "lon": -147.8347888828863, "alt_km": 629.591436839115, "timestamp": "2025-12-10T14:53:37.473111+00:00", "meta": {"OBJECT_NAME": "IRIDIUM 33 DEB", "OBJECT_ID": "1997-051AF", "EPOCH": "2025-12-10T04:48:51.418368", "MEAN_MOTION": 14.69405819, "ECCENTRICITY": 0.0053669, "INCLINATION": 86.4089, "RA_OF_ASC_NODE": 38.6496, "ARG_OF_PERICENTER": 77.6795, "MEAN_ANOMALY": 341.2532, "EPHEMERIS_TYPE": 0, "CLASSIFICATION_TYPE": "U", "NORAD_CAT_ID": 33862, "ELEMENT_SET_NO": 999, "REV_AT_EPOCH": 88786, "BSTAR": 0.0019581358, "MEAN_MOTION_DOT": 0.00011873, "MEAN_MOTION_DDOT": 0}, "tle": {"line1": "1 33862U 97051AF  25344.20059512  .00011873  00000+0  19581-2 0  9991", "line2": "2 33862  86.4089  38.6496 0053669  77.6795 341.2532 14.69405819887869"}}, "geometry": {"type": "Point", "coordinates": [-147.8347888828863, 60.21477091077064]}}, {"type": "Feature", "properties": {"norad_id": 33866, "name": "IRIDIUM 33 DEB", "group": "iridium-33-debris", "lat": 19.09550962771834, "lon": -87.35158215866053, "alt_km": 726.392068995232, "timestamp": "2025-12-10T14:53:37.473121+00:00", "meta": {"OBJECT_NAME": "IRIDIUM 33 DEB", "OBJECT_ID": "1997-051AK", "EPOCH": "2025-12-10T07:29:42.779616", "MEAN_MOTION": 14.25261956, "ECCENTRICITY": 0.01142885, "INCLINATION": 86.2999, "RA_OF_ASC_NODE": 94.0625, "ARG_OF_PERICENTER": 169.117, "MEAN_ANOMALY": 211.0673, "EPHEMERIS_TYPE": 0, "CLASSIFICATION_TYPE": "U", "NORAD_CAT_ID": 33866, "ELEMENT_SET_NO": 999, "REV_AT_EPOCH": 86776, "BSTAR": 0.0011075434, "MEAN_MOTION_DOT": 2.807e-05, "MEAN_MOTION_DDOT": 0}, "tle": {"line1": "1 33866U 97051AK  25344.31230069  .00002807  00000+0  11075-2 0  9992", "line2": "2 33866  86.2999  94.0625 0114288 169.1170 211.0673 14.25261956867761"}}, "geometry": {"type": "Point", "coordinates": [-87.35158215866053, 19.09550962771834]}}]}